[{"CCSDS_OMM_VERS":"3.0","COMMENT":"GENERATED VIA SPACE-TRACK.ORG API","CREATION_DATE":"2026-06-15T15:06:52","ORIGINATOR":"18 SPCS","OBJECT_NAME":"QZS-2","OBJECT_ID":"2017-028A","CENTER_NAME":"EARTH","REF_FRAME":"TEME","TIME_SYSTEM":"UTC","MEAN_ELEMENT_THEORY":"SGP4","EPOCH":"2026-06-15T12:28:38.731008","MEAN_MOTION":"1.00284423","ECCENTRICITY":"0.07605140","INCLINATION":"39.4302","RA_OF_ASC_NODE":"243.1796","ARG_OF_PERICENTER":"269.2356","MEAN_ANOMALY":"80.1810","EPHEMERIS_TYPE":"0","CLASSIFICATION_TYPE":"U","NORAD_CAT_ID":"42738","ELEMENT_SET_NO":"999","REV_AT_EPOCH":"760","BSTAR":"0.00000000000000","MEAN_MOTION_DOT":"-0.00000144","MEAN_MOTION_DDOT":"0.0000000000000","SEMIMAJOR_AXIS":"42161.189","PERIOD":"1435.916","APOAPSIS":"38989.472","PERIAPSIS":"32576.637","OBJECT_TYPE":"PAYLOAD","RCS_SIZE":"LARGE","COUNTRY_CODE":"JPN","LAUNCH_DATE":"2017-06-01","SITE":"TNSTA","DECAY_DATE":null,"FILE":"5248532","GP_ID":"329677804","TLE_LINE0":"0 QZS-2","TLE_LINE1":"1 42738U 17028A   26166.51989272 -.00000144  00000-0  00000+0 0  9995","TLE_LINE2":"2 42738  39.4302 243.1796 0760514 269.2356  80.1810  1.00284423  7600"},{"CCSDS_OMM_VERS":"3.0","COMMENT":"GENERATED VIA SPACE-TRACK.ORG API","CREATION_DATE":"2026-06-17T22:56:53","ORIGINATOR":"18 SPCS","OBJECT_NAME":"QZS-2","OBJECT_ID":"2017-028A","CENTER_NAME":"EARTH","REF_FRAME":"TEME","TIME_SYSTEM":"UTC","MEAN_ELEMENT_THEORY":"SGP4","EPOCH":"2026-06-17T12:26:38.819904","MEAN_MOTION":"1.00283788","ECCENTRICITY":"0.07593330","INCLINATION":"39.4268","RA_OF_ASC_NODE":"243.1501","ARG_OF_PERICENTER":"269.2718","MEAN_ANOMALY":"81.7354","EPHEMERIS_TYPE":"0","CLASSIFICATION_TYPE":"U","NORAD_CAT_ID":"42738","ELEMENT_SET_NO":"999","REV_AT_EPOCH":"762","BSTAR":"0.00000000000000","MEAN_MOTION_DOT":"-0.00000166","MEAN_MOTION_DDOT":"0.0000000000000","SEMIMAJOR_AXIS":"42161.367","PERIOD":"1435.925","APOAPSIS":"38984.684","PERIAPSIS":"32581.781","OBJECT_TYPE":"PAYLOAD","RCS_SIZE":"LARGE","COUNTRY_CODE":"JPN","LAUNCH_DATE":"2017-06-01","SITE":"TNSTA","DECAY_DATE":null,"FILE":"5253053","GP_ID":"330264703","TLE_LINE0":"0 QZS-2","TLE_LINE1":"1 42738U 17028A   26168.51850486 -.00000166  00000-0  00000+0 0  9995","TLE_LINE2":"2 42738  39.4268 243.1501 0759333 269.2718  81.7354  1.00283788  7629"},{"CCSDS_OMM_VERS":"3.0","COMMENT":"GENERATED VIA SPACE-TRACK.ORG API","CREATION_DATE":"2026-06-18T02:44:48","ORIGINATOR":"18 SPCS","OBJECT_NAME":"QZS-2","OBJECT_ID":"2017-028A","CENTER_NAME":"EARTH","REF_FRAME":"TEME","TIME_SYSTEM":"UTC","MEAN_ELEMENT_THEORY":"SGP4","EPOCH":"2026-06-17T12:26:38.820768","MEAN_MOTION":"1.00283788","ECCENTRICITY":"0.07593332","INCLINATION":"39.4268","RA_OF_ASC_NODE":"243.1501","ARG_OF_PERICENTER":"269.2718","MEAN_ANOMALY":"81.7354","EPHEMERIS_TYPE":"0","CLASSIFICATION_TYPE":"U","NORAD_CAT_ID":"42738","ELEMENT_SET_NO":"999","REV_AT_EPOCH":"762","BSTAR":"0.00000000000000","MEAN_MOTION_DOT":"-0.00000166","MEAN_MOTION_DDOT":"0.0000000000000","SEMIMAJOR_AXIS":"42161.368","PERIOD":"1435.925","APOAPSIS":"38984.685","PERIAPSIS":"32581.780","OBJECT_TYPE":"PAYLOAD","RCS_SIZE":"LARGE","COUNTRY_CODE":"JPN","LAUNCH_DATE":"2017-06-01","SITE":"TNSTA","DECAY_DATE":null,"FILE":"5253468","GP_ID":"330318789","TLE_LINE0":"0 QZS-2","TLE_LINE1":"1 42738U 17028A   26168.51850487 -.00000166  00000-0  00000-0 0  9997","TLE_LINE2":"2 42738  39.4268 243.1501 0759333 269.2718  81.7354  1.00283788  7629"},{"CCSDS_OMM_VERS":"3.0","COMMENT":"GENERATED VIA SPACE-TRACK.ORG API","CREATION_DATE":"2026-06-17T17:43:15","ORIGINATOR":"18 SPCS","OBJECT_NAME":"QZS-2","OBJECT_ID":"2017-028A","CENTER_NAME":"EARTH","REF_FRAME":"TEME","TIME_SYSTEM":"UTC","MEAN_ELEMENT_THEORY":"SGP4","EPOCH":"2026-06-17T12:26:38.820768","MEAN_MOTION":"1.00283788","ECCENTRICITY":"0.07593332","INCLINATION":"39.4268","RA_OF_ASC_NODE":"243.1501","ARG_OF_PERICENTER":"269.2718","MEAN_ANOMALY":"81.7354","EPHEMERIS_TYPE":"0","CLASSIFICATION_TYPE":"U","NORAD_CAT_ID":"42738","ELEMENT_SET_NO":"999","REV_AT_EPOCH":"762","BSTAR":"0.00000000000000","MEAN_MOTION_DOT":"-0.00000166","MEAN_MOTION_DDOT":"0.0000000000000","SEMIMAJOR_AXIS":"42161.368","PERIOD":"1435.925","APOAPSIS":"38984.685","PERIAPSIS":"32581.780","OBJECT_TYPE":"PAYLOAD","RCS_SIZE":"LARGE","COUNTRY_CODE":"JPN","LAUNCH_DATE":"2017-06-01","SITE":"TNSTA","DECAY_DATE":null,"FILE":"5252865","GP_ID":"330229356","TLE_LINE0":"0 QZS-2","TLE_LINE1":"1 42738U 17028A   26168.51850487 -.00000166  00000-0  00000-0 0  9997","TLE_LINE2":"2 42738  39.4268 243.1501 0759333 269.2718  81.7354  1.00283788  7629"},{"CCSDS_OMM_VERS":"3.0","COMMENT":"GENERATED VIA SPACE-TRACK.ORG API","CREATION_DATE":"2026-06-18T17:45:15","ORIGINATOR":"18 SPCS","OBJECT_NAME":"QZS-2","OBJECT_ID":"2017-028A","CENTER_NAME":"EARTH","REF_FRAME":"TEME","TIME_SYSTEM":"UTC","MEAN_ELEMENT_THEORY":"SGP4","EPOCH":"2026-06-18T12:27:38.858400","MEAN_MOTION":"1.00283521","ECCENTRICITY":"0.07592463","INCLINATION":"39.4254","RA_OF_ASC_NODE":"243.1353","ARG_OF_PERICENTER":"269.2826","MEAN_ANOMALY":"83.0137","EPHEMERIS_TYPE":"0","CLASSIFICATION_TYPE":"U","NORAD_CAT_ID":"42738","ELEMENT_SET_NO":"999","REV_AT_EPOCH":"764","BSTAR":"0.00000000000000","MEAN_MOTION_DOT":"-0.00000177","MEAN_MOTION_DDOT":"0.0000000000000","SEMIMAJOR_AXIS":"42161.442","PERIOD":"1435.929","APOAPSIS":"38984.399","PERIAPSIS":"32582.215","OBJECT_TYPE":"PAYLOAD","RCS_SIZE":"LARGE","COUNTRY_CODE":"JPN","LAUNCH_DATE":"2017-06-01","SITE":"TNSTA","DECAY_DATE":null,"FILE":"5253513","GP_ID":"330388221","TLE_LINE0":"0 QZS-2","TLE_LINE1":"1 42738U 17028A   26169.51919975 -.00000177  00000-0  00000-0 0  9998","TLE_LINE2":"2 42738  39.4254 243.1353 0759246 269.2826  83.0137  1.00283521  7643"},{"CCSDS_OMM_VERS":"3.0","COMMENT":"GENERATED VIA SPACE-TRACK.ORG API","CREATION_DATE":"2026-06-18T21:46:39","ORIGINATOR":"18 SPCS","OBJECT_NAME":"QZS-2","OBJECT_ID":"2017-028A","CENTER_NAME":"EARTH","REF_FRAME":"TEME","TIME_SYSTEM":"UTC","MEAN_ELEMENT_THEORY":"SGP4","EPOCH":"2026-06-18T12:27:38.858400","MEAN_MOTION":"1.00283521","ECCENTRICITY":"0.07592460","INCLINATION":"39.4254","RA_OF_ASC_NODE":"243.1353","ARG_OF_PERICENTER":"269.2826","MEAN_ANOMALY":"83.0137","EPHEMERIS_TYPE":"0","CLASSIFICATION_TYPE":"U","NORAD_CAT_ID":"42738","ELEMENT_SET_NO":"999","REV_AT_EPOCH":"764","BSTAR":"0.00000000000000","MEAN_MOTION_DOT":"-0.00000177","MEAN_MOTION_DDOT":"0.0000000000000","SEMIMAJOR_AXIS":"42161.442","PERIOD":"1435.929","APOAPSIS":"38984.398","PERIAPSIS":"32582.217","OBJECT_TYPE":"PAYLOAD","RCS_SIZE":"LARGE","COUNTRY_CODE":"JPN","LAUNCH_DATE":"2017-06-01","SITE":"TNSTA","DECAY_DATE":null,"FILE":"5254005","GP_ID":"330455125","TLE_LINE0":"0 QZS-2","TLE_LINE1":"1 42738U 17028A   26169.51919975 -.00000177  00000-0  00000+0 0  9997","TLE_LINE2":"2 42738  39.4254 243.1353 0759246 269.2826  83.0137  1.00283521  7643"},{"CCSDS_OMM_VERS":"3.0","COMMENT":"GENERATED VIA SPACE-TRACK.ORG API","CREATION_DATE":"2026-06-19T17:59:21","ORIGINATOR":"18 SPCS","OBJECT_NAME":"QZS-2","OBJECT_ID":"2017-028A","CENTER_NAME":"EARTH","REF_FRAME":"TEME","TIME_SYSTEM":"UTC","MEAN_ELEMENT_THEORY":"SGP4","EPOCH":"2026-06-19T11:28:51.813408","MEAN_MOTION":"1.00283355","ECCENTRICITY":"0.07588370","INCLINATION":"39.4240","RA_OF_ASC_NODE":"243.1214","ARG_OF_PERICENTER":"269.2922","MEAN_ANOMALY":"69.3071","EPHEMERIS_TYPE":"0","CLASSIFICATION_TYPE":"U","NORAD_CAT_ID":"42738","ELEMENT_SET_NO":"999","REV_AT_EPOCH":"764","BSTAR":"0.00000000000000","MEAN_MOTION_DOT":"-0.00000184","MEAN_MOTION_DDOT":"0.0000000000000","SEMIMAJOR_AXIS":"42161.489","PERIOD":"1435.931","APOAPSIS":"38982.723","PERIAPSIS":"32583.984","OBJECT_TYPE":"PAYLOAD","RCS_SIZE":"LARGE","COUNTRY_CODE":"JPN","LAUNCH_DATE":"2017-06-01","SITE":"TNSTA","DECAY_DATE":null,"FILE":"5255921","GP_ID":"330722700","TLE_LINE0":"0 QZS-2","TLE_LINE1":"1 42738U 17028A   26170.47837747 -.00000184  00000-0  00000-0 0  9999","TLE_LINE2":"2 42738  39.4240 243.1214 0758837 269.2922  69.3071  1.00283355  7645"},{"CCSDS_OMM_VERS":"3.0","COMMENT":"GENERATED VIA SPACE-TRACK.ORG API","CREATION_DATE":"2026-06-23T03:40:42","ORIGINATOR":"18 SPCS","OBJECT_NAME":"QZS-2","OBJECT_ID":"2017-028A","CENTER_NAME":"EARTH","REF_FRAME":"TEME","TIME_SYSTEM":"UTC","MEAN_ELEMENT_THEORY":"SGP4","EPOCH":"2026-06-21T12:15:38.803392","MEAN_MOTION":"1.00282746","ECCENTRICITY":"0.07589766","INCLINATION":"39.4210","RA_OF_ASC_NODE":"243.0913","ARG_OF_PERICENTER":"269.3162","MEAN_ANOMALY":"83.0804","EPHEMERIS_TYPE":"0","CLASSIFICATION_TYPE":"U","NORAD_CAT_ID":"42738","ELEMENT_SET_NO":"999","REV_AT_EPOCH":"767","BSTAR":"0.00000000000000","MEAN_MOTION_DOT":"-0.00000184","MEAN_MOTION_DDOT":"0.0000000000000","SEMIMAJOR_AXIS":"42161.660","PERIOD":"1435.940","APOAPSIS":"38983.496","PERIAPSIS":"32583.553","OBJECT_TYPE":"PAYLOAD","RCS_SIZE":"LARGE","COUNTRY_CODE":"JPN","LAUNCH_DATE":"2017-06-01","SITE":"TNSTA","DECAY_DATE":null,"FILE":"5257616","GP_ID":"330961271","TLE_LINE0":"0 QZS-2","TLE_LINE1":"1 42738U 17028A   26172.51086578 -.00000184  00000-0  00000-0 0  9994","TLE_LINE2":"2 42738  39.4210 243.0913 0758977 269.3162  83.0804  1.00282746  7672"}]